{
  "type": "FeatureCollection",
  "features": [
    {
      "type": "Feature",
      "properties": {
        "norad_id": 41556,
        "name": "ZIYUAN 3-2 (ZY 3-2)",
        "group": "resource",
        "lat": 44.98725362622824,
        "lon": -113.62484695436255,
        "alt_km": 502.25331913972786,
        "timestamp": "2025-12-10T16:57:11.292020+00:00",
        "meta_object_name": "ZIYUAN 3-2 (ZY 3-2)",
        "meta_object_id": "2016-033A",
        "meta_epoch": "2025-12-10T11:37:39.681120",
        "meta_mean_motion": 15.21448948,
        "meta_eccentricity": 0.001242,
        "meta_inclination": 97.4041,
        "meta_ra_of_asc_node": 58.6883,
        "meta_arg_of_pericenter": 257.7887,
        "meta_mean_anomaly": 102.1958,
        "meta_ephemeris_type": 0,
        "meta_classification_type": "U",
        "meta_norad_cat_id": 41556,
        "meta_element_set_no": 999,
        "meta_rev_at_epoch": 52929,
        "meta_bstar": 0.00051017,
        "meta_mean_motion_dot": 0.00011424,
        "meta_mean_motion_ddot": 0,
        "tle_line1": "1 41556U 16033A   25344.48448705  .00011424  00000+0  51017-3 0  9990",
        "tle_line2": "2 41556  97.4041  58.6883 0012420 257.7887 102.1958 15.21448948529298"
      },
      "geometry": {
        "type": "Point",
        "coordinates": [
          -113.62484695436255,
          44.98725362622824
        ]
      }
    },
    {
      "type": "Feature",
      "properties": {
        "norad_id": 41599,
        "name": "CARTOSAT-2C",
        "group": "resource",
        "lat": 81.21216891961461,
        "lon": -79.86155684675816,
        "alt_km": 493.7267504139345,
        "timestamp": "2025-12-10T16:57:11.292030+00:00",
        "meta_object_name": "CARTOSAT-2C",
        "meta_object_id": "2016-040A",
        "meta_epoch": "2025-12-10T10:12:57.943296",
        "meta_mean_motion": 15.19259524,
        "meta_eccentricity": 0.001095,
        "meta_inclination": 97.4767,
        "meta_ra_of_asc_node": 41.6994,
        "meta_arg_of_pericenter": 71.9765,
        "meta_mean_anomaly": 288.2662,
        "meta_ephemeris_type": 0,
        "meta_classification_type": "U",
        "meta_norad_cat_id": 41599,
        "meta_element_set_no": 999,
        "meta_rev_at_epoch": 52505,
        "meta_bstar": 0.00039452,
        "meta_mean_motion_dot": 8.264e-05,
        "meta_mean_motion_ddot": 0,
        "tle_line1": "1 41599U 16040A   25344.42567064  .00008264  00000+0  39452-3 0  9996",
        "tle_line2": "2 41599  97.4767  41.6994 0010950  71.9765 288.2662 15.19259524525057"
      },
      "geometry": {
        "type": "Point",
        "coordinates": [
          -79.86155684675816,
          81.21216891961461
        ]
      }
    },
    {
      "type": "Feature",
      "properties": {
        "norad_id": 41601,
        "name": "SKYSAT-C1",
        "group": "resource",
        "lat": 52.14469288192393,
        "lon": 12.761624507992282,
        "alt_km": 461.91969275387237,
        "timestamp": "2025-12-10T16:57:11.292040+00:00",
        "meta_object_name": "SKYSAT-C1",
        "meta_object_id": "2016-040C",
        "meta_epoch": "2025-12-10T01:03:12.196224",
        "meta_mean_motion": 15.32510525,
        "meta_eccentricity": 0.00026802,
        "meta_inclination": 96.9824,
        "meta_ra_of_asc_node": 21.2092,
        "meta_arg_of_pericenter": 23.5908,
        "meta_mean_anomaly": 336.5457,
        "meta_ephemeris_type": 0,
        "meta_classification_type": "U",
        "meta_norad_cat_id": 41601,
        "meta_element_set_no": 999,
        "meta_rev_at_epoch": 52886,
        "meta_bstar": 0.00041563234,
        "meta_mean_motion_dot": 0.00012984,
        "meta_mean_motion_ddot": 0,
        "tle_line1": "1 41601U 16040C   25344.04389116  .00012984  00000+0  41563-3 0  9998",
        "tle_line2": "2 41601  96.9824  21.2092 0002680  23.5908 336.5457 15.32510525528862"
      },
      "geometry": {
        "type": "Point",
        "coordinates": [
          12.761624507992282,
          52.14469288192393
        ]
      }
    },
    {
      "type": "Feature",
      "properties": {
        "norad_id": 41603,
        "name": "LAPAN-A3",
        "group": "resource",
        "lat": -23.792960977006995,
        "lon": 159.16661137479642,
        "alt_km": 481.9064149509277,
        "timestamp": "2025-12-10T16:57:11.292049+00:00",
        "meta_object_name": "LAPAN-A3",
        "meta_object_id": "2016-040E",
        "meta_epoch": "2025-12-10T12:55:44.395392",
        "meta_mean_motion": 15.31522734,
        "meta_eccentricity": 0.0009907,
        "meta_inclination": 97.1433,
        "meta_ra_of_asc_node": 342.1748,
        "meta_arg_of_pericenter": 342.3873,
        "meta_mean_anomaly": 17.7024,
        "meta_ephemeris_type": 0,
        "meta_classification_type": "U",
        "meta_norad_cat_id": 41603,
        "meta_element_set_no": 999,
        "meta_rev_at_epoch": 52592,
        "meta_bstar": 0.00019448,
        "meta_mean_motion_dot": 5.854e-05,
        "meta_mean_motion_ddot": 0,
        "tle_line1": "1 41603U 16040E   25344.53870828  .00005854  00000+0  19448-3 0  9994",
        "tle_line2": "2 41603  97.1433 342.1748 0009907 342.3873  17.7024 15.31522734525924"
      },
      "geometry": {
        "type": "Point",
        "coordinates": [
          159.16661137479642,
          -23.792960977006995
        ]
      }
    },
    {
      "type": "Feature",
      "properties": {
        "norad_id": 41604,
        "name": "BIROS",
        "group": "resource",
        "lat": -34.80974219293783,
        "lon": 21.008558285123662,
        "alt_km": 314.24226856995483,
        "timestamp": "2025-12-10T16:57:11.292059+00:00",
        "meta_object_name": "BIROS",
        "meta_object_id": "2016-040F",
        "meta_epoch": "2025-12-10T01:58:59.670912",
        "meta_mean_motion": 15.88522659,
        "meta_eccentricity": 0.00031678,
        "meta_inclination": 97.0703,
        "meta_ra_of_asc_node": 15.4098,
        "meta_arg_of_pericenter": 156.5515,
        "meta_mean_anomaly": 203.5903,
        "meta_ephemeris_type": 0,
        "meta_classification_type": "U",
        "meta_norad_cat_id": 41604,
        "meta_element_set_no": 999,
        "meta_rev_at_epoch": 52830,
        "meta_bstar": 0.00072041907,
        "meta_mean_motion_dot": 0.00203476,
        "meta_mean_motion_ddot": 0,
        "tle_line1": "1 41604U 16040F   25344.08263508  .00203476  00000+0  72042-3 0  9995",
        "tle_line2": "2 41604  97.0703  15.4098 0003167 156.5515 203.5903 15.88522659528306"
      },
      "geometry": {
        "type": "Point",
        "coordinates": [
          21.008558285123662,
          -34.80974219293783
        ]
      }
    },
    {
      "type": "Feature",
      "properties": {
        "norad_id": 41727,
        "name": "GAOFEN-3",
        "group": "resource",
        "lat": -80.7252056372856,
        "lon": 55.18135523169587,
        "alt_km": 759.4512302273843,
        "timestamp": "2025-12-10T16:57:11.292069+00:00",
        "meta_object_name": "GAOFEN-3",
        "meta_object_id": "2016-049A",
        "meta_epoch": "2025-12-10T12:21:23.599008",
        "meta_mean_motion": 14.42212459,
        "meta_eccentricity": 0.0001501,
        "meta_inclination": 98.4039,
        "meta_ra_of_asc_node": 350.1347,
        "meta_arg_of_pericenter": 63.3436,
        "meta_mean_anomaly": 296.7907,
        "meta_ephemeris_type": 0,
        "meta_classification_type": "U",
        "meta_norad_cat_id": 41727,
        "meta_element_set_no": 999,
        "meta_rev_at_epoch": 49145,
        "meta_bstar": 3.2138e-05,
        "meta_mean_motion_dot": 6.2e-07,
        "meta_mean_motion_ddot": 0,
        "tle_line1": "1 41727U 16049A   25344.51485647  .00000062  00000+0  32138-4 0  9997",
        "tle_line2": "2 41727  98.4039 350.1347 0001501  63.3436 296.7907 14.42212459491458"
      },
      "geometry": {
        "type": "Point",
        "coordinates": [
          55.18135523169587,
          -80.7252056372856
        ]
      }
    },
    {
      "type": "Feature",
      "properties": {
        "norad_id": 41771,
        "name": "SKYSAT-C4",
        "group": "resource",
        "lat": -79.80188992680293,
        "lon": 52.592344224770294,
        "alt_km": 447.83717539029476,
        "timestamp": "2025-12-10T16:57:11.292079+00:00",
        "meta_object_name": "SKYSAT-C4",
        "meta_object_id": "2016-058B",
        "meta_epoch": "2025-12-10T07:58:00.531840",
        "meta_mean_motion": 15.42137296,
        "meta_eccentricity": 0.0001263,
        "meta_inclination": 96.9376,
        "meta_ra_of_asc_node": 9.6363,
        "meta_arg_of_pericenter": 134.0964,
        "meta_mean_anomaly": 226.0388,
        "meta_ephemeris_type": 0,
        "meta_classification_type": "U",
        "meta_norad_cat_id": 41771,
        "meta_element_set_no": 999,
        "meta_rev_at_epoch": 51630,
        "meta_bstar": 0.00048359,
        "meta_mean_motion_dot": 0.00020656,
        "meta_mean_motion_ddot": 0,
        "tle_line1": "1 41771U 16058B   25344.33195060  .00020656  00000+0  48359-3 0  9995",
        "tle_line2": "2 41771  96.9376   9.6363 0001263 134.0964 226.0388 15.42137296516302"
      },
      "geometry": {
        "type": "Point",
        "coordinates": [
          52.592344224770294,
          -79.80188992680293
        ]
      }
    }
  ]
}